BEIDOU 3 (C01)          
1 36287U 10001A   22054.84910273 -.00000284  00000+0  00000+0 0  9998
2 36287   1.8849  47.6584 0002674  11.4770 180.5980  1.00269184 44371
BEIDOU 5 (C06)          
1 36828U 10036A   22055.66147939 -.00000137  00000+0  00000+0 0  9996
2 36828  54.1926 177.2623 0027538 181.0064 142.9113  1.00279122 42448
BEIDOU 6 (C04)          
1 37210U 10057A   22055.87417668 -.00000118  00000+0  00000+0 0  9996
2 37210   0.9646  53.9502 0003975 158.2941  57.2197  1.00271702 41509
BEIDOU 7 (C07)          
1 37256U 10068A   22055.79234156 -.00000173  00000+0  00000+0 0  9999
2 37256  50.4110 290.9938 0017574 186.4217  70.5605  1.00285628 41010
BEIDOU 8 (C08)          
1 37384U 11013A   22055.43292137 -.00000156  00000+0  00000+0 0  9997
2 37384  60.1348  55.3769 0020007 195.4372 167.5681  1.00285780 39898
BEIDOU 9 (C09)          
1 37763U 11038A   22055.81507659 -.00000079  00000+0  00000+0 0  9999
2 37763  54.4757 179.7389 0089143 225.5058 136.3491  1.00258214 38872
BEIDOU 10 (C10)         
1 37948U 11073A   22055.85971620 -.00000127  00000+0  00000+0 0  9994
2 37948  50.5253 290.6264 0076983 218.5115  50.9410  1.00278420 37629
BEIDOU 11 (C05)         
1 38091U 12008A   22053.77371855  .00000057  00000+0  00000+0 0  9997
2 38091   2.1101  71.8948 0008636 285.6697 132.3309  1.00274173 36680
BEIDOU 12 (C11)         
1 38250U 12018A   22055.74164884 -.00000090  00000+0  00000+0 0  9994
2 38250  56.7216 357.2824 0023445 257.2844 344.9990  1.86234440 66987
BEIDOU 13 (C12)         
1 38251U 12018B   22055.66013157 -.00000090  00000+0  00000+0 0  9992
2 38251  56.6409 356.6170 0014354 263.5359 328.3608  1.86234328 66985
BEIDOU 15 (C14)         
1 38775U 12050B   22055.71868012 -.00000015  00000+0  00000+0 0  9990
2 38775  55.3345 115.4804 0013700 318.6087 149.2606  1.86231332 64360
BEIDOU 16 (C02)         
1 38953U 12059A   22055.89106057 -.00000180  00000+0  00000+0 0  9993
2 38953   1.7097  84.6227 0013294 286.0745 188.7296  1.00267927 34130
BEIDOU 17 (C31)         
1 40549U 15019A   22055.92901141 -.00000171  00000+0  00000+0 0  9997
2 40549  52.0768 314.0629 0035297 190.1645  80.6047  1.00266402 25305
BEIDOU 18 (C57)         
1 40748U 15037A   22055.79488289 -.00000092  00000+0  00000+0 0  9998
2 40748  55.8972 355.5471 0005234 351.5837 240.2569  1.86233341 44813
BEIDOU 19 (C58)         
1 40749U 15037B   22055.65502868 -.00000091  00000+0  00000+0 0  9993
2 40749  55.8999 355.5416 0007022 322.8699 310.1891  1.86232256 44804
BEIDOU 20 (C18)         
1 40938U 15053A   22055.57430203 -.00000093  00000+0  00000+0 0  9997
2 40938  51.6737 277.1672 0042963 193.2906 346.9360  1.00271291 23572
BEIDOU IGSO-6 (C13)     
1 41434U 16021A   22054.47391310 -.00000127  00000+0  00000+0 0  9996
2 41434  57.9320  54.0120 0044136 219.3558 145.2296  1.00264276 21692
BEIDOU-2 G7 (C03)       
1 41586U 16037A   22055.88161956 -.00000361  00000+0  00000+0 0  9998
2 41586   1.7265  67.9075 0008850 359.8796 154.8550  1.00273043 21011
BEIDOU-3 M1 (C19)       
1 43001U 17069A   22055.78313584 -.00000015  00000+0  00000+0 0  9999
2 43001  55.4886 115.4635 0010517 285.0419  22.2139  1.86231623 29297
BEIDOU-3 M2 (C20)       
1 43002U 17069B   22055.71672372 -.00000015  00000+0  00000+0 0  9996
2 43002  55.4871 115.5029 0008376 305.6382   0.2539  1.86231394 29282
BEIDOU-3 M3 (C27)       
1 43107U 18003A   22055.92600556 -.00000093  00000+0  00000+0 0  9995
2 43107  55.3457 356.5103 0004717  35.7813 216.4419  1.86232493 28055
BEIDOU-3 M4 (C28)       
1 43108U 18003B   22055.85941823 -.00000093  00000+0  00000+0 0  9993
2 43108  55.3383 356.5022 0003577 271.5741 340.5275  1.86231040 28053
BEIDOU-3 M5 (C21)       
1 43207U 18018A   22055.39262253 -.00000014  00000+0  00000+0 0  9994
2 43207  55.4458 115.5947 0005802 324.0722  35.9526  1.86231610 27430
BEIDOU-3 M6 (C22)       
1 43208U 18018B   22054.92233361 -.00000012  00000+0  00000+0 0  9999
2 43208  55.4459 115.6156 0008486 294.5908  65.3856  1.86231708 27423
BEIDOU-3 M7 (C29)       
1 43245U 18029A   22055.40764858 -.00000090  00000+0  00000+0 0  9992
2 43245  55.2647 354.3040 0001521 322.7069 212.3337  1.86232563 26584
BEIDOU-3 M8 (C30)       
1 43246U 18029B   22055.24635472 -.00000090  00000+0  10000-3 0  9999
2 43246  55.2616 354.3400 0005217 347.3754 125.9667  1.86232799 26576
BEIDOU IGSO-7 (C16)     
1 43539U 18057A   22055.66606851 -.00000137  00000+0  00000+0 0  9997
2 43539  55.0750 176.7064 0045228 223.7404 103.4932  1.00291768 13372
BEIDOU-3 M9 (C23)       
1 43581U 18062A   22055.56741179  .00000091  00000+0  00000+0 0  9990
2 43581  54.3122 235.9491 0002103 327.5138 211.7777  1.86231942 24327
BEIDOU-3 M10 (C24)      
1 43582U 18062B   22055.43708199  .00000092  00000+0  00000+0 0  9993
2 43582  54.3117 235.9437 0006720  22.6898 160.9055  1.86232228 24329
BEIDOU-3 M11 (C25)      
1 43602U 18067A   22055.64295315  .00000091  00000+0  00000+0 0  9994
2 43602  54.3927 234.5416 0007943  14.9132 348.3057  1.86231672 23826
BEIDOU-3 M12 (C26)      
1 43603U 18067B   22055.77807126  .00000090  00000+0  00000+0 0  9997
2 43603  54.3891 234.5032 0004825  11.1466 353.0631  1.86231645 23849
BEIDOU-3 M13 (C32)      
1 43622U 18072A   22055.64907209 -.00000015  00000+0  00000+0 0  9991
2 43622  55.4137 115.1446 0007255 278.8228  28.5157  1.86231448 23349
BEIDOU-3 M14 (C33)      
1 43623U 18072B   22055.51430211 -.00000015  00000+0  00000+0 0  9992
2 43623  55.4148 115.1423 0004905 299.3273   7.8900  1.86231491 23348
BEIDOU-3 M15 (C34)      
1 43647U 18078A   22055.04654770 -.00000089  00000+0  10000-3 0  9996
2 43647  55.1591 354.4858 0007568 354.3828 254.6370  1.86232761 22847
BEIDOU-3 M16 (C35)      
1 43648U 18078B   22055.72635604 -.00000092  00000+0  00000+0 0  9996
2 43648  55.1552 354.4682 0005375   0.9851 251.8157  1.86232231 22871
BEIDOU-3 G1 (C59)       
1 43683U 18085A   22055.87016465 -.00000285  00000+0  00000+0 0  9991
2 43683   0.8385 186.4662 0001541 345.8420  75.7105  1.00271361 12289
BEIDOU-3 M17 (C36)      
1 43706U 18093A   22055.50140093  .00000092  00000+0  00000+0 0  9996
2 43706  54.3944 235.8279 0007183 283.8063  76.1104  1.86231603 22234
BEIDOU-3 M18 (C37)      
1 43707U 18093B   22055.63439535  .00000091  00000+0  00000+0 0  9992
2 43707  54.3945 235.8148 0006917 320.1628 220.0356  1.86232190 22227
BEIDOU-3 IGSO-1 (C38)   
1 44204U 19023A   22054.03690836 -.00000193  00000+0  00000+0 0  9999
2 44204  56.3882  54.1960 0021141 205.5567  24.1726  1.00293090 10560
BEIDOU-2 G8             
1 44231U 19027A   22055.79923771 -.00000255  00000+0  00000+0 0  9993
2 44231   0.5977  69.2466 0005187 143.0071  14.4796  1.00265941 10295
BEIDOU-3 IGSO-2 (C39)   
1 44337U 19035A   22055.72222405 -.00000150  00000+0  00000+0 0  9992
2 44337  55.1134 172.7296 0022449 189.1832 170.7574  1.00287737  9925
BEIDOU-3 M23 (C45)      
1 44542U 19061A   22055.43680309  .00000093  00000+0  00000+0 0  9993
2 44542  54.6204 235.9497 0008281 353.9634   6.0236  1.86231201 16483
BEIDOU-3 M24 (C46)      
1 44543U 19061B   22055.56535919  .00000092  00000+0  00000+0 0  9993
2 44543  54.6175 235.9157 0005510 353.8038   3.5299  1.86231773 16477
BEIDOU-3 IGSO-3         
1 44709U 19073A   22055.57840127 -.00000164  00000+0  00000+0 0  9992
2 44709  57.4441 297.5562 0019814 174.1941   9.1970  1.00290301  8670
BEIDOU-3 M21            
1 44793U 19078A   22053.94216093 -.00000083  00000+0  10000-3 0  9993
2 44793  55.0088 354.5587 0007194   0.3531 182.3063  1.86232222 15316
BEIDOU-3 M22            
1 44794U 19078B   22055.75883402 -.00000093  00000+0  00000+0 0  9995
2 44794  54.9819 354.4897 0005380 355.7901 236.3095  1.86232731 15346
BEIDOU-3 M19            
1 44864U 19090A   22055.79073907 -.00000015  00000+0  00000+0 0  9996
2 44864  55.3487 115.3570 0017611 267.0711 180.9383  1.86231796 14934
BEIDOU-3 M20            
1 44865U 19090B   22055.86369502 -.00000015  00000+0  00000+0 0  9994
2 44865  55.3497 115.3864 0015830 280.4124 306.3958  1.86231741 14909
BEIDOU-3 G2             
1 45344U 20017A   22055.85466030 -.00000143  00000+0  00000+0 0  9993
2 45344   2.1518 346.6306 0002363  65.1060 130.6222  1.00269821  7483
BEIDOU-3 G3             
1 45807U 20040A   22055.93601435 -.00000359  00000+0  00000+0 0  9991
2 45807   1.7001 300.7154 0007995 348.3564 313.1774  1.00274478  6306
